{
  "norad_id": 62038,
  "name": "STARLINK-32477",
  "history": [
    {
      "epoch": "2026-04-11T20:00:01.000224Z",
      "apogee_km": 432.64491882927996,
      "perigee_km": 407.84306529404057,
      "latitude_deg": 7.487658242937422,
      "longitude_deg": 90.29163912700852,
      "height_km": 406.9616278531875,
      "semi_major_axis_km": 6798.3809920616595,
      "eccentricity": 0.0018241,
      "inclination_deg": 42.9939,
      "raan_deg": 58.4017,
      "arg_perigee_deg": 170.815,
      "mean_anomaly_deg": 358.1565,
      "mean_motion_rev_day": 15.4879705
    },
    {
      "epoch": "2026-04-13T06:00:02.000160Z",
      "apogee_km": 431.7601941728335,
      "perigee_km": 406.6441618568524,
      "latitude_deg": 14.598827273004206,
      "longitude_deg": -77.4430822651699,
      "height_km": 406.56295804827585,
      "semi_major_axis_km": 6797.339178014842,
      "eccentricity": 0.00184749,
      "inclination_deg": 42.994,
      "raan_deg": 50.1381,
      "arg_perigee_deg": 179.8798,
      "mean_anomaly_deg": 338.5537,
      "mean_motion_rev_day": 15.49153135
    },
    {
      "epoch": "2026-04-14T20:00:01.999008Z",
      "apogee_km": 431.2366141986031,
      "perigee_km": 405.0125592400882,
      "latitude_deg": 0.21633155827833228,
      "longitude_deg": -101.8892868931714,
      "height_km": 430.78574157014793,
      "semi_major_axis_km": 6796.261586719345,
      "eccentricity": 0.0019293,
      "inclination_deg": 42.9939,
      "raan_deg": 40.8924,
      "arg_perigee_deg": 190.2449,
      "mean_anomaly_deg": 170.1185,
      "mean_motion_rev_day": 15.49521592
    },
    {
      "epoch": "2026-04-15T20:44:58.447104Z",
      "apogee_km": 430.7752344581968,
      "perigee_km": 404.24231509515903,
      "latitude_deg": -7.340037635883388e-07,
      "longitude_deg": -120.3937402824087,
      "height_km": 429.91336514209854,
      "semi_major_axis_km": 6795.645774776677,
      "eccentricity": 0.0019522,
      "inclination_deg": 42.9939,
      "raan_deg": 34.8703,
      "arg_perigee_deg": 197.8167,
      "mean_anomaly_deg": 162.201,
      "mean_motion_rev_day": 15.4973222
    },
    {
      "epoch": "2026-04-16T20:00:01.999008Z",
      "apogee_km": 430.5834693917059,
      "perigee_km": 403.35547775210216,
      "latitude_deg": 7.9957593695528635,
      "longitude_deg": -107.1566201910052,
      "height_km": 429.3917991201665,
      "semi_major_axis_km": 6795.106473571904,
      "eccentricity": 0.0020035,
      "inclination_deg": 42.9945,
      "raan_deg": 29.2105,
      "arg_perigee_deg": 203.3465,
      "mean_anomaly_deg": 168.3912,
      "mean_motion_rev_day": 15.49916718
    },
    {
      "epoch": "2026-04-17T22:14:27.076128Z",
      "apogee_km": 430.1812647242423,
      "perigee_km": 402.58952462216257,
      "latitude_deg": 2.9831373504029493e-05,
      "longitude_deg": -156.84412693298015,
      "height_km": 428.00278874842644,
      "semi_major_axis_km": 6794.522394673202,
      "eccentricity": 0.00203044,
      "inclination_deg": 42.9943,
      "raan_deg": 22.8217,
      "arg_perigee_deg": 210.8551,
      "mean_anomaly_deg": 149.1117,
      "mean_motion_rev_day": 15.50116576
    },
    {
      "epoch": "2026-04-18T10:36:41.917248Z",
      "apogee_km": 429.9851119850564,
      "perigee_km": 402.10776204098056,
      "latitude_deg": -9.749127974634082e-06,
      "longitude_deg": 14.074042671091433,
      "height_km": 427.33970086081484,
      "semi_major_axis_km": 6794.183437013018,
      "eccentricity": 0.00205156,
      "inclination_deg": 42.9938,
      "raan_deg": 19.8098,
      "arg_perigee_deg": 214.2634,
      "mean_anomaly_deg": 145.6903,
      "mean_motion_rev_day": 15.50232579
    },
    {
      "epoch": "2026-04-19T02:04:26.653440Z",
      "apogee_km": 429.839779359565,
      "perigee_km": 401.63080633498794,
      "latitude_deg": 9.207752528209301e-06,
      "longitude_deg": 137.73504267666436,
      "height_km": 426.6409816890421,
      "semi_major_axis_km": 6793.872292847276,
      "eccentricity": 0.00207606,
      "inclination_deg": 42.9945,
      "raan_deg": 16.0422,
      "arg_perigee_deg": 217.8791,
      "mean_anomaly_deg": 142.0609,
      "mean_motion_rev_day": 15.50339076
    },
    {
      "epoch": "2026-04-20T10:32:25.406016Z",
      "apogee_km": 429.13864525075405,
      "perigee_km": 400.34865091520896,
      "latitude_deg": 2.6118892342737096e-05,
      "longitude_deg": 1.49811180323165,
      "height_km": 424.4530589066072,
      "semi_major_axis_km": 6792.880648082981,
      "eccentricity": 0.00211913,
      "inclination_deg": 42.9947,
      "raan_deg": 8.1334,
      "arg_perigee_deg": 226.3364,
      "mean_anomaly_deg": 133.574,
      "mean_motion_rev_day": 15.50678573
    },
    {
      "epoch": "2026-04-21T20:00:01.999008Z",
      "apogee_km": 428.1640942502054,
      "perigee_km": 398.84322319836065,
      "latitude_deg": -33.29209818364684,
      "longitude_deg": 74.5239542385643,
      "height_km": 408.1505250705431,
      "semi_major_axis_km": 6791.640658724283,
      "eccentricity": 0.0021586,
      "inclination_deg": 42.9938,
      "raan_deg": 359.9748,
      "arg_perigee_deg": 234.762,
      "mean_anomaly_deg": 358.4831,
      "mean_motion_rev_day": 15.51103267
    },
    {
      "epoch": "2026-04-22T20:00:03.000384Z",
      "apogee_km": 427.42280121379736,
      "perigee_km": 397.7256628538671,
      "latitude_deg": 38.139511119043625,
      "longitude_deg": -99.89977448694033,
      "height_km": 429.4544268926128,
      "semi_major_axis_km": 6790.711232033832,
      "eccentricity": 0.0021866,
      "inclination_deg": 42.9936,
      "raan_deg": 354.1203,
      "arg_perigee_deg": 240.9052,
      "mean_anomaly_deg": 183.6298,
      "mean_motion_rev_day": 15.51421721
    },
    {
      "epoch": "2026-04-23T14:00:04.000032Z",
      "apogee_km": 427.12607932836363,
      "perigee_km": 396.88184087234185,
      "latitude_deg": -36.806632419840206,
      "longitude_deg": -124.87203489446304,
      "height_km": 413.7214350412212,
      "semi_major_axis_km": 6790.1409601003525,
      "eccentricity": 0.00222707,
      "inclination_deg": 42.9938,
      "raan_deg": 349.7248,
      "arg_perigee_deg": 245.3906,
      "mean_anomaly_deg": 53.3615,
      "mean_motion_rev_day": 15.5161717
    },
    {
      "epoch": "2026-04-24T20:00:01.999008Z",
      "apogee_km": 426.2243180961568,
      "perigee_km": 395.61924111768985,
      "latitude_deg": 43.15320288863046,
      "longitude_deg": -80.44498761550942,
      "height_km": 428.7069356984796,
      "semi_major_axis_km": 6789.058779606923,
      "eccentricity": 0.002254,
      "inclination_deg": 42.9938,
      "raan_deg": 342.4039,
      "arg_perigee_deg": 253.3307,
      "mean_anomaly_deg": 196.7582,
      "mean_motion_rev_day": 15.51988178
    },
    {
      "epoch": "2026-04-25T20:00:01.000224Z",
      "apogee_km": 425.6861381610961,
      "perigee_km": 394.83423063743885,
      "latitude_deg": -41.50359684270472,
      "longitude_deg": 111.99326462519109,
      "height_km": 408.9082981443549,
      "semi_major_axis_km": 6788.397184399267,
      "eccentricity": 0.0022724,
      "inclination_deg": 42.9935,
      "raan_deg": 336.5421,
      "arg_perigee_deg": 259.5224,
      "mean_anomaly_deg": 24.764,
      "mean_motion_rev_day": 15.52215068
    },
    {
      "epoch": "2026-04-26T21:01:52.089312Z",
      "apogee_km": 425.0839397025493,
      "perigee_km": 393.5598583443898,
      "latitude_deg": -1.4532541218796592e-06,
      "longitude_deg": 160.0818839943118,
      "height_km": 410.17827903963274,
      "semi_major_axis_km": 6787.458899023469,
      "eccentricity": 0.00232223,
      "inclination_deg": 42.9928,
      "raan_deg": 330.4231,
      "arg_perigee_deg": 266.0084,
      "mean_anomaly_deg": 93.8122,
      "mean_motion_rev_day": 15.52536942
    },
    {
      "epoch": "2026-04-27T20:00:03.000384Z",
      "apogee_km": 423.82586056564014,
      "perigee_km": 392.20781261020966,
      "latitude_deg": -28.200825914454896,
      "longitude_deg": 134.0941097710924,
      "height_km": 404.0793789052691,
      "semi_major_axis_km": 6786.153836587925,
      "eccentricity": 0.0023296,
      "inclination_deg": 42.9931,
      "raan_deg": 324.8102,
      "arg_perigee_deg": 271.7581,
      "mean_anomaly_deg": 44.5003,
      "mean_motion_rev_day": 15.52984822
    },
    {
      "epoch": "2026-04-28T20:00:01.000224Z",
      "apogee_km": 422.84777743610994,
      "perigee_km": 390.7049289167726,
      "latitude_deg": 17.33571392828966,
      "longitude_deg": -37.31711291801133,
      "height_km": 414.80352729358424,
      "semi_major_axis_km": 6784.913353176441,
      "eccentricity": 0.0023687,
      "inclination_deg": 42.9929,
      "raan_deg": 318.9385,
      "arg_perigee_deg": 277.7792,
      "mean_anomaly_deg": 236.6105,
      "mean_motion_rev_day": 15.53410739
    },
    {
      "epoch": "2026-04-29T20:00:01.999008Z",
      "apogee_km": 421.83298591856146,
      "perigee_km": 389.4242241171487,
      "latitude_deg": -3.8573908934243177,
      "longitude_deg": 151.14136251064554,
      "height_km": 400.55247601044243,
      "semi_major_axis_km": 6783.765605017855,
      "eccentricity": 0.0023887,
      "inclination_deg": 42.9924,
      "raan_deg": 313.0628,
      "arg_perigee_deg": 283.9085,
      "mean_anomaly_deg": 70.2916,
      "mean_motion_rev_day": 15.53804989
    },
    {
      "epoch": "2026-04-30T14:00:01.999872Z",
      "apogee_km": 420.96750914771656,
      "perigee_km": 388.52619659851734,
      "latitude_deg": -33.99606147894847,
      "longitude_deg": 106.11844674439581,
      "height_km": 404.5995932086681,
      "semi_major_axis_km": 6782.883852873117,
      "eccentricity": 0.00239141,
      "inclination_deg": 42.9923,
      "raan_deg": 308.6522,
      "arg_perigee_deg": 287.9623,
      "mean_anomaly_deg": 306.9623,
      "mean_motion_rev_day": 15.54107983
    }
  ]
}